[
    {
    "OBJECT_NAME": "STARLINK-11292 [DTC]",
    "OBJECT_ID": "2024-171D",
    "EPOCH": "2024-09-29T22:00:00.999936",
    "MEAN_MOTION": 15.85455661,
    "ECCENTRICITY": 0.0000766,
    "INCLINATION": 53.1634,
    "RA_OF_ASC_NODE": 250.0504,
    "ARG_OF_PERICENTER": 117.2526,
    "MEAN_ANOMALY": 259.3586,
    "EPHEMERIS_TYPE": 0,
    "CLASSIFICATION_TYPE": "U",
    "NORAD_CAT_ID": 61203,
    "ELEMENT_SET_NO": 999,
    "REV_AT_EPOCH": 270,
    "BSTAR": -0.0026096,
    "MEAN_MOTION_DOT": -0.00598542,
    "MEAN_MOTION_DDOT": 0
    },
    {
    "OBJECT_NAME": "STARLINK-11302 [DTC]",
    "OBJECT_ID": "2024-171E",
    "EPOCH": "2024-09-29T22:00:00.999936",
    "MEAN_MOTION": 15.86066605,
    "ECCENTRICITY": 0.0000748,
    "INCLINATION": 53.1632,
    "RA_OF_ASC_NODE": 250.0291,
    "ARG_OF_PERICENTER": 117.9288,
    "MEAN_ANOMALY": 268.7987,
    "EPHEMERIS_TYPE": 0,
    "CLASSIFICATION_TYPE": "U",
    "NORAD_CAT_ID": 61204,
    "ELEMENT_SET_NO": 999,
    "REV_AT_EPOCH": 270,
    "BSTAR": -0.0024049,
    "MEAN_MOTION_DOT": -0.00570139,
    "MEAN_MOTION_DDOT": 0
    },
    {
    "OBJECT_NAME": "STARLINK-11277 [DTC]",
    "OBJECT_ID": "2024-171F",
    "EPOCH": "2024-09-29T22:00:00.999936",
    "MEAN_MOTION": 15.87128002,
    "ECCENTRICITY": 0.0000874,
    "INCLINATION": 53.1632,
    "RA_OF_ASC_NODE": 249.9947,
    "ARG_OF_PERICENTER": 126.465,
    "MEAN_ANOMALY": 276.8645,
    "EPHEMERIS_TYPE": 0,
    "CLASSIFICATION_TYPE": "U",
    "NORAD_CAT_ID": 61205,
    "ELEMENT_SET_NO": 999,
    "REV_AT_EPOCH": 270,
    "BSTAR": -0.0020588,
    "MEAN_MOTION_DOT": -0.00517403,
    "MEAN_MOTION_DDOT": 0
    },
    {
    "OBJECT_NAME": "STARLINK-11279 [DTC]",
    "OBJECT_ID": "2024-171G",
    "EPOCH": "2024-09-29T22:00:00.999936",
    "MEAN_MOTION": 15.87589556,
    "ECCENTRICITY": 0.0000884,
    "INCLINATION": 53.1632,
    "RA_OF_ASC_NODE": 249.978,
    "ARG_OF_PERICENTER": 125.5018,
    "MEAN_ANOMALY": 286.0022,
    "EPHEMERIS_TYPE": 0,
    "CLASSIFICATION_TYPE": "U",
    "NORAD_CAT_ID": 61206,
    "ELEMENT_SET_NO": 999,
    "REV_AT_EPOCH": 270,
    "BSTAR": -0.0019367,
    "MEAN_MOTION_DOT": -0.00499043,
    "MEAN_MOTION_DDOT": 0
    },
    {
    "OBJECT_NAME": "STARLINK-11091 [DTC]",
    "OBJECT_ID": "2024-171H",
    "EPOCH": "2024-09-29T22:00:00.999936",
    "MEAN_MOTION": 15.86626557,
    "ECCENTRICITY": 0.0000756,
    "INCLINATION": 53.1632,
    "RA_OF_ASC_NODE": 250.0123,
    "ARG_OF_PERICENTER": 111.0275,
    "MEAN_ANOMALY": 283.9413,
    "EPHEMERIS_TYPE": 0,
    "CLASSIFICATION_TYPE": "U",
    "NORAD_CAT_ID": 61207,
    "ELEMENT_SET_NO": 999,
    "REV_AT_EPOCH": 265,
    "BSTAR": -0.0022086,
    "MEAN_MOTION_DOT": -0.00540056,
    "MEAN_MOTION_DDOT": 0
    },
    {
    "OBJECT_NAME": "STARLINK-11291 [DTC]",
    "OBJECT_ID": "2024-171J",
    "EPOCH": "2024-09-29T22:00:00.999936",
    "MEAN_MOTION": 15.88017307,
    "ECCENTRICITY": 0.0000742,
    "INCLINATION": 53.1631,
    "RA_OF_ASC_NODE": 249.9622,
    "ARG_OF_PERICENTER": 115.6648,
    "MEAN_ANOMALY": 303.3993,
    "EPHEMERIS_TYPE": 0,
    "CLASSIFICATION_TYPE": "U",
    "NORAD_CAT_ID": 61208,
    "ELEMENT_SET_NO": 999,
    "REV_AT_EPOCH": 270,
    "BSTAR": -0.0018273,
    "MEAN_MOTION_DOT": -0.00481928,
    "MEAN_MOTION_DDOT": 0
    },
    {
    "OBJECT_NAME": "STARLINK-11304 [DTC]",
    "OBJECT_ID": "2024-171K",
    "EPOCH": "2024-09-29T22:00:00.999936",
    "MEAN_MOTION": 15.88414904,
    "ECCENTRICITY": 0.0000757,
    "INCLINATION": 53.1631,
    "RA_OF_ASC_NODE": 249.9476,
    "ARG_OF_PERICENTER": 116.5785,
    "MEAN_ANOMALY": 309.5367,
    "EPHEMERIS_TYPE": 0,
    "CLASSIFICATION_TYPE": "U",
    "NORAD_CAT_ID": 61209,
    "ELEMENT_SET_NO": 999,
    "REV_AT_EPOCH": 270,
    "BSTAR": -0.0017293,
    "MEAN_MOTION_DOT": -0.004661,
    "MEAN_MOTION_DDOT": 0
    },
    {
    "OBJECT_NAME": "STARLINK-11307 [DTC]",
    "OBJECT_ID": "2024-171L",
    "EPOCH": "2024-09-29T22:00:00.999936",
    "MEAN_MOTION": 15.88790349,
    "ECCENTRICITY": 0.0000639,
    "INCLINATION": 53.163,
    "RA_OF_ASC_NODE": 249.9332,
    "ARG_OF_PERICENTER": 124.3257,
    "MEAN_ANOMALY": 308.6491,
    "EPHEMERIS_TYPE": 0,
    "CLASSIFICATION_TYPE": "U",
    "NORAD_CAT_ID": 61210,
    "ELEMENT_SET_NO": 999,
    "REV_AT_EPOCH": 270,
    "BSTAR": -0.0016542,
    "MEAN_MOTION_DOT": -0.00454925,
    "MEAN_MOTION_DDOT": 0
    },
    {
    "OBJECT_NAME": "STARLINK-11298 [DTC]",
    "OBJECT_ID": "2024-171M",
    "EPOCH": "2024-09-29T22:00:00.999936",
    "MEAN_MOTION": 15.89144688,
    "ECCENTRICITY": 0.0000601,
    "INCLINATION": 53.163,
    "RA_OF_ASC_NODE": 249.9192,
    "ARG_OF_PERICENTER": 122.1785,
    "MEAN_ANOMALY": 317.4865,
    "EPHEMERIS_TYPE": 0,
    "CLASSIFICATION_TYPE": "U",
    "NORAD_CAT_ID": 61211,
    "ELEMENT_SET_NO": 999,
    "REV_AT_EPOCH": 270,
    "BSTAR": -0.0015795,
    "MEAN_MOTION_DOT": -0.00442831,
    "MEAN_MOTION_DDOT": 0
    },
    {
    "OBJECT_NAME": "STARLINK-11310 [DTC]",
    "OBJECT_ID": "2024-171N",
    "EPOCH": "2024-09-29T22:00:00.999936",
    "MEAN_MOTION": 15.89464525,
    "ECCENTRICITY": 0.0000793,
    "INCLINATION": 53.1629,
    "RA_OF_ASC_NODE": 249.9079,
    "ARG_OF_PERICENTER": 128.6836,
    "MEAN_ANOMALY": 316.4889,
    "EPHEMERIS_TYPE": 0,
    "CLASSIFICATION_TYPE": "U",
    "NORAD_CAT_ID": 61212,
    "ELEMENT_SET_NO": 999,
    "REV_AT_EPOCH": 270,
    "BSTAR": -0.0014971,
    "MEAN_MOTION_DOT": -0.00427365,
    "MEAN_MOTION_DDOT": 0
    },
    {
    "OBJECT_NAME": "STARLINK-32386",
    "OBJECT_ID": "2024-171P",
    "EPOCH": "2024-09-30T04:00:00.999936",
    "MEAN_MOTION": 15.79863407,
    "ECCENTRICITY": 0.0000535,
    "INCLINATION": 53.1621,
    "RA_OF_ASC_NODE": 248.8791,
    "ARG_OF_PERICENTER": 90.0287,
    "MEAN_ANOMALY": 230.8123,
    "EPHEMERIS_TYPE": 0,
    "CLASSIFICATION_TYPE": "U",
    "NORAD_CAT_ID": 61213,
    "ELEMENT_SET_NO": 999,
    "REV_AT_EPOCH": 274,
    "BSTAR": -0.0063318,
    "MEAN_MOTION_DOT": -0.01074155,
    "MEAN_MOTION_DDOT": 0
    },
    {
    "OBJECT_NAME": "STARLINK-32392",
    "OBJECT_ID": "2024-171Q",
    "EPOCH": "2024-09-30T04:00:00.999936",
    "MEAN_MOTION": 15.79742797,
    "ECCENTRICITY": 0.0000564,
    "INCLINATION": 53.1622,
    "RA_OF_ASC_NODE": 248.8662,
    "ARG_OF_PERICENTER": 104.68,
    "MEAN_ANOMALY": 222.4333,
    "EPHEMERIS_TYPE": 0,
    "CLASSIFICATION_TYPE": "U",
    "NORAD_CAT_ID": 61214,
    "ELEMENT_SET_NO": 999,
    "REV_AT_EPOCH": 273,
    "BSTAR": -0.006666,
    "MEAN_MOTION_DOT": -0.01119379,
    "MEAN_MOTION_DDOT": 0
    },
    {
    "OBJECT_NAME": "STARLINK-32436",
    "OBJECT_ID": "2024-171R",
    "EPOCH": "2024-09-30T04:00:00.999936",
    "MEAN_MOTION": 15.79798726,
    "ECCENTRICITY": 0.0000616,
    "INCLINATION": 53.1622,
    "RA_OF_ASC_NODE": 248.8727,
    "ARG_OF_PERICENTER": 96.7698,
    "MEAN_ANOMALY": 227.3177,
    "EPHEMERIS_TYPE": 0,
    "CLASSIFICATION_TYPE": "U",
    "NORAD_CAT_ID": 61215,
    "ELEMENT_SET_NO": 999,
    "REV_AT_EPOCH": 273,
    "BSTAR": -0.0065141,
    "MEAN_MOTION_DOT": -0.0109902,
    "MEAN_MOTION_DDOT": 0
    },
    {
    "OBJECT_NAME": "STARLINK-32425",
    "OBJECT_ID": "2024-171S",
    "EPOCH": "2024-09-30T04:00:00.999936",
    "MEAN_MOTION": 15.79702163,
    "ECCENTRICITY": 0.0000521,
    "INCLINATION": 53.1623,
    "RA_OF_ASC_NODE": 248.8605,
    "ARG_OF_PERICENTER": 81.1196,
    "MEAN_ANOMALY": 248.772,
    "EPHEMERIS_TYPE": 0,
    "CLASSIFICATION_TYPE": "U",
    "NORAD_CAT_ID": 61216,
    "ELEMENT_SET_NO": 999,
    "REV_AT_EPOCH": 273,
    "BSTAR": -0.0068142,
    "MEAN_MOTION_DOT": -0.01139705,
    "MEAN_MOTION_DDOT": 0
    }
    ]
