STARLINK-11292 [DTC]    
1 61203U 24171D   24273.91667824 -.00598542  00000+0 -26096-2 0  9997
2 61203  53.1634 250.0504 0000766 117.2526 259.3586 15.85455661  2708
STARLINK-11302 [DTC]    
1 61204U 24171E   24273.91667824 -.00570139  00000+0 -24049-2 0  9996
2 61204  53.1632 250.0291 0000748 117.9288 268.7987 15.86066605  2708
STARLINK-11277 [DTC]    
1 61205U 24171F   24273.91667824 -.00517403  00000+0 -20588-2 0  9996
2 61205  53.1632 249.9947 0000874 126.4650 276.8645 15.87128002  2704
STARLINK-11279 [DTC]    
1 61206U 24171G   24273.91667824 -.00499043  00000+0 -19367-2 0  9999
2 61206  53.1632 249.9780 0000884 125.5018 286.0022 15.87589556  2706
STARLINK-11091 [DTC]    
1 61207U 24171H   24273.91667824 -.00540056  00000+0 -22086-2 0  9993
2 61207  53.1632 250.0123 0000756 111.0275 283.9413 15.86626557  2650
STARLINK-11291 [DTC]    
1 61208U 24171J   24273.91667824 -.00481928  00000+0 -18273-2 0  9999
2 61208  53.1631 249.9622 0000742 115.6648 303.3993 15.88017307  2705
STARLINK-11304 [DTC]    
1 61209U 24171K   24273.91667824 -.00466100  00000+0 -17293-2 0  9996
2 61209  53.1631 249.9476 0000757 116.5785 309.5367 15.88414904  2708
STARLINK-11307 [DTC]    
1 61210U 24171L   24273.91667824 -.00454925  00000+0 -16542-2 0  9996
2 61210  53.1630 249.9332 0000639 124.3257 308.6491 15.88790349  2708
STARLINK-11298 [DTC]    
1 61211U 24171M   24273.91667824 -.00442831  00000+0 -15795-2 0  9999
2 61211  53.1630 249.9192 0000601 122.1785 317.4865 15.89144688  2707
STARLINK-11310 [DTC]    
1 61212U 24171N   24273.91667824 -.00427365  00000+0 -14971-2 0  9990
2 61212  53.1629 249.9079 0000793 128.6836 316.4889 15.89464525  2700
STARLINK-32386          
1 61213U 24171P   24274.16667824 -.01074155  00000+0 -63318-2 0  9994
2 61213  53.1621 248.8791 0000535  90.0287 230.8123 15.79863407  2743
STARLINK-32392          
1 61214U 24171Q   24274.16667824 -.01119379  00000+0 -66660-2 0  9996
2 61214  53.1622 248.8662 0000564 104.6800 222.4333 15.79742797  2734
STARLINK-32436          
1 61215U 24171R   24274.16667824 -.01099020  00000+0 -65141-2 0  9990
2 61215  53.1622 248.8727 0000616  96.7698 227.3177 15.79798726  2734
STARLINK-32425          
1 61216U 24171S   24274.16667824 -.01139705  00000+0 -68142-2 0  9990
2 61216  53.1623 248.8605 0000521  81.1196 248.7720 15.79702163  2738
